25319,1 25319U 98026A   25153.12323241  .00000648  00000-0  19587-3 0  9990,2 25319  86.3961 101.7885 0004652  79.6805 280.4919 14.40953868421139
25320,1 25320U 98026B   25153.89581653  .00000558  00000-0  16699-3 0  9990,2 25320  86.3962  96.1544 0004072 108.7052 251.4589 14.41148142421789
25344,1 25344U 98032C   25153.79365155  .00000742  00000-0  17995-3 0  9994,2 25344  86.4423  52.9299 0002825  76.0582 284.0937 14.51701827428775
25467,1 25467U 98051A   25153.98435447  .00039102  00000-0  11358-2 0  9992,2 25467  86.3660 116.7191 0085273 353.0992   6.9074 15.31685618421789
